{"type": "FeatureCollection", "features": [ {"type": "Feature", "properties": {"norad_id": 39574, "name": "GPM-CORE", "group": "resource", "lat": -44.58478092370315, "lon": 66.62714401125216, "alt_km": 430.12542755317645, "timestamp": "2025-12-10T18:56:59.718939+00:00", "meta": {"OBJECT_NAME": "GPM-CORE", "OBJECT_ID": "2014-009C", "EPOCH": "2025-12-10T08:38:10.036032", "MEAN_MOTION": 15.45477231, "ECCENTRICITY": 0.0010512, "INCLINATION": 64.9737, "RA_OF_ASC_NODE": 220.6497, "ARG_OF_PERICENTER": 270.2347, "MEAN_ANOMALY": 89.7589, "EPHEMERIS_TYPE": 0, "CLASSIFICATION_TYPE": "U", "NORAD_CAT_ID": 39574, "ELEMENT_SET_NO": 999, "REV_AT_EPOCH": 66864, "BSTAR": 0.00038248, "MEAN_MOTION_DOT": 0.00018262, "MEAN_MOTION_DDOT": 0}, "tle": {"line1": "1 39574U 14009C   25344.35983838  .00018262  00000+0  38248-3 0  9993", "line2": "2 39574  64.9737 220.6497 0010512 270.2347  89.7589 15.45477231668645"}}, "geometry": {"type": "Point", "coordinates": [66.62714401125216, -44.58478092370315]}}, {"type": "Feature", "properties": {"norad_id": 39634, "name": "SENTINEL-1A", "group": "resource", "lat": -34.10035918368935, "lon": -4.351444859596085, "alt_km": 702.358537576345, "timestamp": "2025-12-10T18:56:59.718949+00:00", "meta": {"OBJECT_NAME": "SENTINEL-1A", "OBJECT_ID": "2014-016A", "EPOCH": "2025-12-10T10:52:44.967072", "MEAN_MOTION": 14.59201222, "ECCENTRICITY": 0.0001281, "INCLINATION": 98.1803, "RA_OF_ASC_NODE": 349.7282, "ARG_OF_PERICENTER": 82.9542, "MEAN_ANOMALY": 277.1803, "EPHEMERIS_TYPE": 0, "CLASSIFICATION_TYPE": "U", "NORAD_CAT_ID": 39634, "ELEMENT_SET_NO": 999, "REV_AT_EPOCH": 62249, "BSTAR": 6.8399e-05, "MEAN_MOTION_DOT": 2.77e-06, "MEAN_MOTION_DDOT": 0}, "tle": {"line1": "1 39634U 14016A   25344.45329823  .00000277  00000+0  68399-4 0  9995", "line2": "2 39634  98.1803 349.7282 0001281  82.9542 277.1803 14.59201222622492"}}, "geometry": {"type": "Point", "coordinates": [-4.351444859596085, -34.10035918368935]}}, {"type": "Feature", "properties": {"norad_id": 39731, "name": "KAZEOSAT 1", "group": "resource", "lat": 59.15155744037232, "lon": 42.51705772320707, "alt_km": 745.2983578040657, "timestamp": "2025-12-10T18:56:59.718958+00:00", "meta": {"OBJECT_NAME": "KAZEOSAT 1", "OBJECT_ID": "2014-024A", "EPOCH": "2025-12-10T12:00:38.869632", "MEAN_MOTION": 14.42061145, "ECCENTRICITY": 0.0001099, "INCLINATION": 98.3432, "RA_OF_ASC_NODE": 56.4578, "ARG_OF_PERICENTER": 94.085, "MEAN_ANOMALY": 266.0466, "EPHEMERIS_TYPE": 0, "CLASSIFICATION_TYPE": "U", "NORAD_CAT_ID": 39731, "ELEMENT_SET_NO": 999, "REV_AT_EPOCH": 61136, "BSTAR": 0.00018673, "MEAN_MOTION_DOT": 5.7e-06, "MEAN_MOTION_DDOT": 0}, "tle": {"line1": "1 39731U 14024A   25344.50044988  .00000570  00000+0  18673-3 0  9999", "line2": "2 39731  98.3432  56.4578 0001099  94.0850 266.0466 14.42061145611369"}}, "geometry": {"type": "Point", "coordinates": [42.51705772320707, 59.15155744037232]}}, {"type": "Feature", "properties": {"norad_id": 39766, "name": "ALOS-2", "group": "resource", "lat": 41.616193984837665, "lon": 72.55734143041909, "alt_km": 627.0858810979453, "timestamp": "2025-12-10T18:56:59.718968+00:00", "meta": {"OBJECT_NAME": "ALOS-2", "OBJECT_ID": "2014-029A", "EPOCH": "2025-12-10T12:16:02.876160", "MEAN_MOTION": 14.79466326, "ECCENTRICITY": 0.0001476, "INCLINATION": 97.9227, "RA_OF_ASC_NODE": 79.3892, "ARG_OF_PERICENTER": 98.4859, "MEAN_ANOMALY": 261.652, "EPHEMERIS_TYPE": 0, "CLASSIFICATION_TYPE": "U", "NORAD_CAT_ID": 39766, "ELEMENT_SET_NO": 999, "REV_AT_EPOCH": 62368, "BSTAR": 0.00028111, "MEAN_MOTION_DOT": 2.048e-05, "MEAN_MOTION_DDOT": 0}, "tle": {"line1": "1 39766U 14029A   25344.51114440  .00002048  00000+0  28111-3 0  9994", "line2": "2 39766  97.9227  79.3892 0001476  98.4859 261.6520 14.79466326623683"}}, "geometry": {"type": "Point", "coordinates": [72.55734143041909, 41.616193984837665]}}, {"type": "Feature", "properties": {"norad_id": 40010, "name": "KAZEOSAT 2", "group": "resource", "lat": -82.03942059067944, "lon": -99.26664387404122, "alt_km": 617.7006022414289, "timestamp": "2025-12-10T18:56:59.718978+00:00", "meta": {"OBJECT_NAME": "KAZEOSAT 2", "OBJECT_ID": "2014-033A", "EPOCH": "2025-12-10T12:52:32.075040", "MEAN_MOTION": 14.85162998, "ECCENTRICITY": 0.0007564, "INCLINATION": 97.5503, "RA_OF_ASC_NODE": 188.9644, "ARG_OF_PERICENTER": 214.4975, "MEAN_ANOMALY": 145.575, "EPHEMERIS_TYPE": 0, "CLASSIFICATION_TYPE": "U", "NORAD_CAT_ID": 40010, "ELEMENT_SET_NO": 999, "REV_AT_EPOCH": 62095, "BSTAR": 0.00017789, "MEAN_MOTION_DOT": 1.474e-05, "MEAN_MOTION_DDOT": 0}, "tle": {"line1": "1 40010U 14033A   25344.53648235  .00001474  00000+0  17789-3 0  9990", "line2": "2 40010  97.5503 188.9644 0007564 214.4975 145.5750 14.85162998620952"}}, "geometry": {"type": "Point", "coordinates": [-99.26664387404122, -82.03942059067944]}}, {"type": "Feature", "properties": {"norad_id": 40011, "name": "HODOYOSHI-4", "group": "resource", "lat": -15.782332263399091, "lon": 175.91521033906494, "alt_km": 622.4592082870731, "timestamp": "2025-12-10T18:56:59.718989+00:00", "meta": {"OBJECT_NAME": "HODOYOSHI-4", "OBJECT_ID": "2014-033B", "EPOCH": "2025-12-10T12:33:49.251744", "MEAN_MOTION": 14.87467843, "ECCENTRICITY": 0.0023166, "INCLINATION": 97.5414, "RA_OF_ASC_NODE": 173.5165, "ARG_OF_PERICENTER": 208.3254, "MEAN_ANOMALY": 151.6705, "EPHEMERIS_TYPE": 0, "CLASSIFICATION_TYPE": "U", "NORAD_CAT_ID": 40011, "ELEMENT_SET_NO": 999, "REV_AT_EPOCH": 62075, "BSTAR": 0.0003419, "MEAN_MOTION_DOT": 3.06e-05, "MEAN_MOTION_DDOT": 0}, "tle": {"line1": "1 40011U 14033B   25344.52348671  .00003060  00000+0  34190-3 0  9999", "line2": "2 40011  97.5414 173.5165 0023166 208.3254 151.6705 14.87467843620755"}}, "geometry": {"type": "Point", "coordinates": [175.91521033906494, -15.782332263399091]}}, {"type": "Feature", "properties": {"norad_id": 40013, "name": "DEIMOS-2", "group": "resource", "lat": 75.16219344677486, "lon": 70.94876376589005, "alt_km": 580.9261813772182, "timestamp": "2025-12-10T18:56:59.718999+00:00", "meta": {"OBJECT_NAME": "DEIMOS-2", "OBJECT_ID": "2014-033D", "EPOCH": "2025-12-10T12:03:26.057088", "MEAN_MOTION": 14.92956749, "ECCENTRICITY": 9.73e-05, "INCLINATION": 97.6066, "RA_OF_ASC_NODE": 220.3765, "ARG_OF_PERICENTER": 89.7459, "MEAN_ANOMALY": 270.3872, "EPHEMERIS_TYPE": 0, "CLASSIFICATION_TYPE": "U", "NORAD_CAT_ID": 40013, "ELEMENT_SET_NO": 999, "REV_AT_EPOCH": 60956, "BSTAR": 0.0002461, "MEAN_MOTION_DOT": 2.501e-05, "MEAN_MOTION_DDOT": 0}, "tle": {"line1": "1 40013U 14033D   25344.50238492  .00002501  00000+0  24610-3 0  9993", "line2": "2 40013  97.6066 220.3765 0000973  89.7459 270.3872 14.92956749609561"}}, "geometry": {"type": "Point", "coordinates": [70.94876376589005, 75.16219344677486]}}, {"type": "Feature", "properties": {"norad_id": 40015, "name": "HODOYOSHI-3", "group": "resource", "lat": -70.22945452868485, "lon": 172.57619325923943, "alt_km": 602.9667063092857, "timestamp": "2025-12-10T18:56:59.719009+00:00", "meta": {"OBJECT_NAME": "HODOYOSHI-3", "OBJECT_ID": "2014-033F", "EPOCH": "2025-12-10T11:11:05.437824", "MEAN_MOTION": 14.84794737, "ECCENTRICITY": 0.003184, "INCLINATION": 97.62, "RA_OF_ASC_NODE": 150.4, "ARG_OF_PERICENTER": 255.7267, "MEAN_ANOMALY": 104.0411, "EPHEMERIS_TYPE": 0, "CLASSIFICATION_TYPE": "U", "NORAD_CAT_ID": 40015, "ELEMENT_SET_NO": 999, "REV_AT_EPOCH": 61961, "BSTAR": 0.00033087, "MEAN_MOTION_DOT": 2.781e-05, "MEAN_MOTION_DDOT": 0}, "tle": {"line1": "1 40015U 14033F   25344.46603516  .00002781  00000+0  33087-3 0  9991", "line2": "2 40015  97.6200 150.4000 0031840 255.7267 104.0411 14.84794737619614"}}, "geometry": {"type": "Point", "coordinates": [172.57619325923943, -70.22945452868485]}}, {"type": "Feature", "properties": {"norad_id": 40053, "name": "SPOT 7", "group": "resource", "lat": 0.3170073476334076, "lon": -133.0451030364045, "alt_km": 693.8195420504726, "timestamp": "2025-12-10T18:56:59.719019+00:00", "meta": {"OBJECT_NAME": "SPOT 7", "OBJECT_ID": "2014-034A", "EPOCH": "2025-12-10T11:33:16.828992", "MEAN_MOTION": 14.60729413, "ECCENTRICITY": 0.000157, "INCLINATION": 98.0904, "RA_OF_ASC_NODE": 46.6088, "ARG_OF_PERICENTER": 87.7401, "MEAN_ANOMALY": 272.3979, "EPHEMERIS_TYPE": 0, "CLASSIFICATION_TYPE": "U", "NORAD_CAT_ID": 40053, "ELEMENT_SET_NO": 999, "REV_AT_EPOCH": 60958, "BSTAR": 0.00019999, "MEAN_MOTION_DOT": 9.29e-06, "MEAN_MOTION_DDOT": 0}, "tle": {"line1": "1 40053U 14034A   25344.48144478  .00000929  00000+0  19999-3 0  9991", "line2": "2 40053  98.0904  46.6088 0001570  87.7401 272.3979 14.60729413609580"}}, "geometry": {"type": "Point", "coordinates": [-133.0451030364045, 0.3170073476334076]}}, {"type": "Feature", "properties": {"norad_id": 40072, "name": "SKYSAT-B", "group": "resource", "lat": -70.14545064264051, "lon": -47.57344382656562, "alt_km": 616.3932709325927, "timestamp": "2025-12-10T18:56:59.719029+00:00", "meta": {"OBJECT_NAME": "SKYSAT-B", "OBJECT_ID": "2014-037D", "EPOCH": "2025-12-10T09:35:07.778976", "MEAN_MOTION": 14.87313745, "ECCENTRICITY": 0.0005966, "INCLINATION": 98.3608, "RA_OF_ASC_NODE": 287.9818, "ARG_OF_PERICENTER": 157.2173, "MEAN_ANOMALY": 202.9307, "EPHEMERIS_TYPE": 0, "CLASSIFICATION_TYPE": "U", "NORAD_CAT_ID": 40072, "ELEMENT_SET_NO": 999, "REV_AT_EPOCH": 61789, "BSTAR": 0.00035559, "MEAN_MOTION_DOT": 3.149e-05, "MEAN_MOTION_DDOT": 0}, "tle": {"line1": "1 40072U 14037D   25344.39939559  .00003149  00000+0  35559-3 0  9994", "line2": "2 40072  98.3608 287.9818 0005966 157.2173 202.9307 14.87313745617891"}}, "geometry": {"type": "Point", "coordinates": [-47.57344382656562, -70.14545064264051]}}]}